IRIDIUM 106             
1 41917U 17003A   24056.50109178  .00000206  00000+0  66344-4 0  9995
2 41917  86.3911  80.7029 0002460  98.7544 261.3931 14.34216934372427
IRIDIUM 103             
1 41918U 17003B   24056.13955744  .00000186  00000+0  59350-4 0  9999
2 41918  86.3910  80.7563 0001856  92.9885 267.1523 14.34216925372401
IRIDIUM 109             
1 41919U 17003C   24056.56451667  .00000221  00000+0  71708-4 0  9993
2 41919  86.3911  80.6241 0002091  86.4882 273.6553 14.34217415372446
IRIDIUM 102             
1 41920U 17003D   24056.46303473 -.00000028  00000+0 -17076-4 0  9990
2 41920  86.3913  80.6080 0002067  87.6622 272.4810 14.34216347372490
IRIDIUM 105             
1 41921U 17003E   24055.73604098  .00000452  00000+0  15450-3 0  9999
2 41921  86.3943  49.3106 0002178  89.1680 270.9765 14.34208401374248
IRIDIUM 104             
1 41922U 17003F   24056.47571680  .00000237  00000+0  77594-4 0  9991
2 41922  86.3913  80.6324 0002009  89.2229 270.9197 14.34216719372483
IRIDIUM 114             
1 41923U 17003G   24056.48205765  .00000022  00000+0  88278-6 0  9996
2 41923  86.3911  80.6161 0002302  96.6710 263.4748 14.34215670372488
IRIDIUM 108             
1 41924U 17003H   24055.95220491 -.00000014  00000+0 -11995-4 0  9994
2 41924  86.3937  49.1524 0002265  94.5474 265.5980 14.34217492374243
